IXPE                    
1 49954U 21121A   24160.58335648  .00006031  00000+0  42776-3 0  9991
2 49954   0.2307  96.9191 0009148 154.9415 151.7981 14.98136257  5745
